[{"OBJECT_NAME":"STARLINK-35396","OBJECT_ID":"2025-221F","EPOCH":"2026-03-09T10:20:43.246176","MEAN_MOTION":15.30203428,"ECCENTRICITY":0.00012879,"INCLINATION":53.1592,"RA_OF_ASC_NODE":89.5566,"ARG_OF_PERICENTER":90.4869,"MEAN_ANOMALY":269.6279,"EPHEMERIS_TYPE":0,"CLASSIFICATION_TYPE":"U","NORAD_CAT_ID":65828,"ELEMENT_SET_NO":999,"REV_AT_EPOCH":2604,"BSTAR":0.0011167703,"MEAN_MOTION_DOT":0.00032866,"MEAN_MOTION_DDOT":0},{"OBJECT_NAME":"COSMOS 2251 DEB","OBJECT_ID":"1993-036AWN","EPOCH":"2026-03-09T06:26:08.321568","MEAN_MOTION":15.11257706,"ECCENTRICITY":0.00842289,"INCLINATION":74.0116,"RA_OF_ASC_NODE":284.5024,"ARG_OF_PERICENTER":350.308,"MEAN_ANOMALY":9.6482,"EPHEMERIS_TYPE":0,"CLASSIFICATION_TYPE":"U","NORAD_CAT_ID":35996,"ELEMENT_SET_NO":999,"REV_AT_EPOCH":73632,"BSTAR":0.00055219842,"MEAN_MOTION_DOT":0.00010085,"MEAN_MOTION_DDOT":0}]
